MTI                     
1 26102U 00014A   22019.52129645  .00052811  00000+0  42909-3 0  9997
2 26102  97.4587 303.6051 0002695 197.6426 162.4812 15.70557666215132
CFESAT                  
1 30777U 07006F   22019.50976461  .00030830  00000+0  64900-3 0  9994
2 30777  35.4215 187.8241 0003935  73.3758 286.7403 15.44304680826045
SPIRALE A               
1 33751U 09008C   22019.10428017  .00000063  00000+0  38356-3 0  9999
2 33751   2.0899  35.4010 5407511 326.0546   8.8115  4.58817934187863
SPIRALE B               
1 33752U 09008D   22018.03601362  .00000968  00000+0  45003-3 0  9998
2 33752   1.8095 203.3847 6866468 342.6597   2.2910  2.79872361120903
SAPPHIRE                
1 39088U 13009C   22018.77813219  .00000029  00000+0  25437-4 0  9997
2 39088  98.4309 218.2261 0011465   7.6826 352.4533 14.34263889465661
